{"type": "FeatureCollection", "features": [ {"type": "Feature", "properties": {"norad_id": 35931, "name": "OCEANSAT-2", "group": "resource", "lat": -74.08904504035117, "lon": 7.423022235501305, "alt_km": 913.0568569851393, "timestamp": "2025-12-01T03:58:49.207148+00:00", "meta": {"OBJECT_NAME": "OCEANSAT-2", "OBJECT_ID": "2009-051A", "EPOCH": "2025-11-30T21:28:55.831296", "MEAN_MOTION": 13.99627068, "ECCENTRICITY": 0.0016727, "INCLINATION": 98.2234, "RA_OF_ASC_NODE": 336.6964, "ARG_OF_PERICENTER": 75.7341, "MEAN_ANOMALY": 284.5682, "EPHEMERIS_TYPE": 0, "CLASSIFICATION_TYPE": "U", "NORAD_CAT_ID": 35931, "ELEMENT_SET_NO": 999, "REV_AT_EPOCH": 85159, "BSTAR": -8.1798e-05, "MEAN_MOTION_DOT": -1.57e-06, "MEAN_MOTION_DDOT": 0, "GROUP": "resource"}, "tle": {"line1": "1 35931U 09051A   25334.89509064 -.00000157  00000+0 -81798-4 0  9995", "line2": "2 35931  98.2234 336.6964 0016727  75.7341 284.5682 13.99627068851592"}}, "geometry": {"type": "Point", "coordinates": [7.423022235501305, -74.08904504035117]}}, {"type": "Feature", "properties": {"norad_id": 35946, "name": "WORLDVIEW-2 (WV-2)", "group": "resource", "lat": -78.67739728165712, "lon": 178.26439590127035, "alt_km": 777.4299454067532, "timestamp": "2025-12-01T03:58:49.207162+00:00", "meta": {"OBJECT_NAME": "WORLDVIEW-2 (WV-2)", "OBJECT_ID": "2009-055A", "EPOCH": "2025-11-30T18:24:41.971680", "MEAN_MOTION": 14.37643595, "ECCENTRICITY": 0.0005446, "INCLINATION": 98.4774, "RA_OF_ASC_NODE": 46.0188, "ARG_OF_PERICENTER": 95.4301, "MEAN_ANOMALY": 264.7507, "EPHEMERIS_TYPE": 0, "CLASSIFICATION_TYPE": "U", "NORAD_CAT_ID": 35946, "ELEMENT_SET_NO": 999, "REV_AT_EPOCH": 84713, "BSTAR": 7.4055e-05, "MEAN_MOTION_DOT": 1.79e-06, "MEAN_MOTION_DDOT": 0, "GROUP": "resource"}, "tle": {"line1": "1 35946U 09055A   25334.76715245  .00000179  00000+0  74055-4 0  9991", "line2": "2 35946  98.4774  46.0188 0005446  95.4301 264.7507 14.37643595847137"}}, "geometry": {"type": "Point", "coordinates": [178.26439590127035, -78.67739728165712]}}, {"type": "Feature", "properties": {"norad_id": 36036, "name": "SMOS", "group": "resource", "lat": -30.335357366287578, "lon": -24.598842745385177, "alt_km": 765.730530041551, "timestamp": "2025-12-01T03:58:49.207174+00:00", "meta": {"OBJECT_NAME": "SMOS", "OBJECT_ID": "2009-059A", "EPOCH": "2025-11-30T18:39:57.182688", "MEAN_MOTION": 14.39784749, "ECCENTRICITY": 0.0001071, "INCLINATION": 98.4385, "RA_OF_ASC_NODE": 160.0025, "ARG_OF_PERICENTER": 72.6353, "MEAN_ANOMALY": 287.4953, "EPHEMERIS_TYPE": 0, "CLASSIFICATION_TYPE": "U", "NORAD_CAT_ID": 36036, "ELEMENT_SET_NO": 999, "REV_AT_EPOCH": 84490, "BSTAR": 0.00014547, "MEAN_MOTION_DOT": 4.13e-06, "MEAN_MOTION_DDOT": 0, "GROUP": "resource"}, "tle": {"line1": "1 36036U 09059A   25334.77774517  .00000413  00000+0  14547-3 0  9994", "line2": "2 36036  98.4385 160.0025 0001071  72.6353 287.4953 14.39784749844905"}}, "geometry": {"type": "Point", "coordinates": [-24.598842745385177, -30.335357366287578]}}, {"type": "Feature", "properties": {"norad_id": 36110, "name": "YAOGAN-7", "group": "resource", "lat": -73.9364697116632, "lon": 7.603990708302852, "alt_km": 636.594596023454, "timestamp": "2025-12-01T03:58:49.207186+00:00", "meta": {"OBJECT_NAME": "YAOGAN-7", "OBJECT_ID": "2009-069A", "EPOCH": "2025-11-30T15:26:50.681760", "MEAN_MOTION": 14.77702183, "ECCENTRICITY": 0.0023949, "INCLINATION": 98.0304, "RA_OF_ASC_NODE": 216.4434, "ARG_OF_PERICENTER": 322.0594, "MEAN_ANOMALY": 37.8928, "EPHEMERIS_TYPE": 0, "CLASSIFICATION_TYPE": "U", "NORAD_CAT_ID": 36110, "ELEMENT_SET_NO": 999, "REV_AT_EPOCH": 86030, "BSTAR": 0.00010897, "MEAN_MOTION_DOT": 7.31e-06, "MEAN_MOTION_DDOT": 0, "GROUP": "resource"}, "tle": {"line1": "1 36110U 09069A   25334.64364215  .00000731  00000+0  10897-3 0  9991", "line2": "2 36110  98.0304 216.4434 0023949 322.0594  37.8928 14.77702183860307"}}, "geometry": {"type": "Point", "coordinates": [7.603990708302852, -73.9364697116632]}}, {"type": "Feature", "properties": {"norad_id": 36605, "name": "TANDEM-X", "group": "resource", "lat": -38.41189186338762, "lon": 154.7628742417194, "alt_km": 515.6954186435396, "timestamp": "2025-12-01T03:58:49.207201+00:00", "meta": {"OBJECT_NAME": "TANDEM-X", "OBJECT_ID": "2010-030A", "EPOCH": "2025-11-30T14:22:26.230944", "MEAN_MOTION": 15.19145567, "ECCENTRICITY": 0.0001853, "INCLINATION": 97.4447, "RA_OF_ASC_NODE": 340.1556, "ARG_OF_PERICENTER": 93.3732, "MEAN_ANOMALY": 266.7715, "EPHEMERIS_TYPE": 0, "CLASSIFICATION_TYPE": "U", "NORAD_CAT_ID": 36605, "ELEMENT_SET_NO": 999, "REV_AT_EPOCH": 85649, "BSTAR": 7.1559e-05, "MEAN_MOTION_DOT": 1.436e-05, "MEAN_MOTION_DDOT": 0, "GROUP": "resource"}, "tle": {"line1": "1 36605U 10030A   25334.59891471  .00001436  00000+0  71559-4 0  9999", "line2": "2 36605  97.4447 340.1556 0001853  93.3732 266.7715 15.19145567856495"}}, "geometry": {"type": "Point", "coordinates": [154.7628742417194, -38.41189186338762]}}, {"type": "Feature", "properties": {"norad_id": 36795, "name": "CARTOSAT-2B", "group": "resource", "lat": 39.13272058066214, "lon": -149.0362527166103, "alt_km": 622.4245557675094, "timestamp": "2025-12-01T03:58:49.207211+00:00", "meta": {"OBJECT_NAME": "CARTOSAT-2B", "OBJECT_ID": "2010-035A", "EPOCH": "2025-11-30T20:51:10.152000", "MEAN_MOTION": 14.78757722, "ECCENTRICITY": 0.0012826, "INCLINATION": 97.787, "RA_OF_ASC_NODE": 24.2838, "ARG_OF_PERICENTER": 112.3765, "MEAN_ANOMALY": 247.8807, "EPHEMERIS_TYPE": 0, "CLASSIFICATION_TYPE": "U", "NORAD_CAT_ID": 36795, "ELEMENT_SET_NO": 999, "REV_AT_EPOCH": 83054, "BSTAR": 0.0001154, "MEAN_MOTION_DOT": 7.99e-06, "MEAN_MOTION_DDOT": 0, "GROUP": "resource"}, "tle": {"line1": "1 36795U 10035A   25334.86886750  .00000799  00000+0  11540-3 0  9992", "line2": "2 36795  97.7870  24.2838 0012826 112.3765 247.8807 14.78757722830547"}}, "geometry": {"type": "Point", "coordinates": [-149.0362527166103, 39.13272058066214]}}, {"type": "Feature", "properties": {"norad_id": 36834, "name": "YAOGAN-10", "group": "resource", "lat": -21.16043837380423, "lon": -1.8395479758135433, "alt_km": 620.6345235865756, "timestamp": "2025-12-01T03:58:49.207222+00:00", "meta": {"OBJECT_NAME": "YAOGAN-10", "OBJECT_ID": "2010-038A", "EPOCH": "2025-11-30T20:26:47.280768", "MEAN_MOTION": 14.84541071, "ECCENTRICITY": 0.000153, "INCLINATION": 97.9153, "RA_OF_ASC_NODE": 354.7618, "ARG_OF_PERICENTER": 85.5411, "MEAN_ANOMALY": 16.5935, "EPHEMERIS_TYPE": 0, "CLASSIFICATION_TYPE": "U", "NORAD_CAT_ID": 36834, "ELEMENT_SET_NO": 999, "REV_AT_EPOCH": 82777, "BSTAR": 0.00010182, "MEAN_MOTION_DOT": 8.05e-06, "MEAN_MOTION_DDOT": 0, "GROUP": "resource"}, "tle": {"line1": "1 36834U 10038A   25334.85193612  .00000805  00000+0  10182-3 0  9995", "line2": "2 36834  97.9153 354.7618 0001530  85.5411  16.5935 14.84541071827772"}}, "geometry": {"type": "Point", "coordinates": [-1.8395479758135433, -21.16043837380423]}}, {"type": "Feature", "properties": {"norad_id": 37216, "name": "COSMO-SKYMED 4", "group": "resource", "lat": 2.2319977299979405, "lon": 156.35374334896835, "alt_km": 625.095891816949, "timestamp": "2025-12-01T03:58:49.207234+00:00", "meta": {"OBJECT_NAME": "COSMO-SKYMED 4", "OBJECT_ID": "2010-060A", "EPOCH": "2025-11-30T19:52:08.309280", "MEAN_MOTION": 14.82162497, "ECCENTRICITY": 0.0001483, "INCLINATION": 97.8815, "RA_OF_ASC_NODE": 156.3303, "ARG_OF_PERICENTER": 85.8457, "MEAN_ANOMALY": 274.2926, "EPHEMERIS_TYPE": 0, "CLASSIFICATION_TYPE": "U", "NORAD_CAT_ID": 37216, "ELEMENT_SET_NO": 999, "REV_AT_EPOCH": 81518, "BSTAR": 8.421e-05, "MEAN_MOTION_DOT": 6.18e-06, "MEAN_MOTION_DDOT": 0, "GROUP": "resource"}, "tle": {"line1": "1 37216U 10060A   25334.82787395  .00000618  00000+0  84210-4 0  9995", "line2": "2 37216  97.8815 156.3303 0001483  85.8457 274.2926 14.82162497815182"}}, "geometry": {"type": "Point", "coordinates": [156.35374334896835, 2.2319977299979405]}}, {"type": "Feature", "properties": {"norad_id": 37387, "name": "RESOURCESAT-2", "group": "resource", "lat": -33.19332002785306, "lon": 44.57827245008116, "alt_km": 827.3974662402807, "timestamp": "2025-12-01T03:58:49.207246+00:00", "meta": {"OBJECT_NAME": "RESOURCESAT-2", "OBJECT_ID": "2011-015A", "EPOCH": "2025-11-30T19:41:32.053632", "MEAN_MOTION": 14.2158937, "ECCENTRICITY": 0.0006854, "INCLINATION": 98.7893, "RA_OF_ASC_NODE": 38.4252, "ARG_OF_PERICENTER": 73.0081, "MEAN_ANOMALY": 287.1847, "EPHEMERIS_TYPE": 0, "CLASSIFICATION_TYPE": "U", "NORAD_CAT_ID": 37387, "ELEMENT_SET_NO": 999, "REV_AT_EPOCH": 75799, "BSTAR": 9.9126e-05, "MEAN_MOTION_DOT": 1.73e-06, "MEAN_MOTION_DDOT": 0, "GROUP": "resource"}, "tle": {"line1": "1 37387U 11015A   25334.82050988  .00000173  00000+0  99126-4 0  9994", "line2": "2 37387  98.7893  38.4252 0006854  73.0081 287.1847 14.21589370757994"}}, "geometry": {"type": "Point", "coordinates": [44.57827245008116, -33.19332002785306]}}, {"type": "Feature", "properties": {"norad_id": 37781, "name": "HAIYANG-2A", "group": "resource", "lat": -6.8582008603187115, "lon": -22.587530918905575, "alt_km": 972.0408941917512, "timestamp": "2025-12-01T03:58:49.207259+00:00", "meta": {"OBJECT_NAME": "HAIYANG-2A", "OBJECT_ID": "2011-043A", "EPOCH": "2025-11-30T21:02:52.271232", "MEAN_MOTION": 13.78833853, "ECCENTRICITY": 0.0001632, "INCLINATION": 99.3377, "RA_OF_ASC_NODE": 335.9942, "ARG_OF_PERICENTER": 99.762, "MEAN_ANOMALY": 260.3716, "EPHEMERIS_TYPE": 0, "CLASSIFICATION_TYPE": "U", "NORAD_CAT_ID": 37781, "ELEMENT_SET_NO": 999, "REV_AT_EPOCH": 71935, "BSTAR": 5.981e-05, "MEAN_MOTION_DOT": 1.7e-07, "MEAN_MOTION_DDOT": 0, "GROUP": "resource"}, "tle": {"line1": "1 37781U 11043A   25334.87699388  .00000017  00000+0  59810-4 0  9994", "line2": "2 37781  99.3377 335.9942 0001632  99.7620 260.3716 13.78833853719355"}}, "geometry": {"type": "Point", "coordinates": [-22.587530918905575, -6.8582008603187115]}}]}